NORAD_CAT_ID,OBJECT_NAME,OBJECT_TYPE,EPOCH,MEAN_MOTION,ECCENTRICITY,INCLINATION,RA_OF_ASC_NODE,ARG_OF_PERICENTER,MEAN_ANOMALY,BSTAR,MEAN_MOTION_DOT,MEAN_MOTION_DDOT,TLE_LINE0,TLE_LINE1,TLE_LINE2,SEMIMAJOR_AXIS,PERIOD,APOGEE,PERIGEE,DECAYED
54806.0,STARLINK-5412,PAYLOAD,2023-02-17 00:48:44,15.49892128,0.0001651,53.2166,4.7044,117.0637,243.0542,5.9251e-05,2.913e-05,0.0,0 STARLINK-5412,1 54806U 22175BA  23048.03384859  .00002913  00000-0  59251-4 0  9998,2 54806  53.2166   4.7044 0001651 117.0637 243.0542 15.49892128  9351,6795.178,92.91,418.165,415.921,0.0
54806.0,STARLINK-5412,PAYLOAD,2023-02-17 05:27:20,15.49864246,0.0001428,53.217,3.7776,122.4321,237.6827,4.6829e-05,2.205e-05,0.0,0 STARLINK-5412,1 54806U 22175BA  23048.22731784  .00002205  00000-0  46829-4 0  9993,2 54806  53.2170   3.7776 0001428 122.4321 237.6827 15.49864246  9387,6795.26,92.911,418.095,416.154,0.0
54806.0,STARLINK-5412,PAYLOAD,2023-02-17 20:55:53,15.49887899,0.0001474,53.217,0.696,122.0932,238.0221,3.8852e-05,1.754e-05,0.0,0 STARLINK-5412,1 54806U 22175BA  23048.87214986  .00001754  00000-0  38852-4 0  9999,2 54806  53.2170   0.6960 0001474 122.0932 238.0221 15.49887899 11647,6795.191,92.91,418.057,416.054,0.0
54806.0,STARLINK-5412,PAYLOAD,2023-02-18 00:02:22,15.49379706,6.5e-05,53.2168,0.0825,74.7779,285.3303,-0.0011391,-0.0006344,0.0,0 STARLINK-5412,1 54806U 22175BA  23049.00164801 -.00063440  00000-0 -11391-2 0  9994,2 54806  53.2168   0.0825 0000650  74.7779 285.3303 15.49379706  9506,6796.676,92.94,418.983,418.1,0.0
54806.0,STARLINK-5412,PAYLOAD,2023-02-19 00:50:38,15.48042704,0.0001636,53.2161,355.1632,125.1343,234.982,-0.0037088,-0.00192952,0.0,0 STARLINK-5412,1 54806U 22175BA  23050.03517338 -.00192952  00000-0 -37088-2 0  9998,2 54806  53.2161 355.1632 0001636 125.1343 234.9820 15.48042704  9667,6800.589,93.021,423.567,421.342,0.0
54806.0,STARLINK-5412,PAYLOAD,2023-02-19 14:00:01,15.45546412,0.0001347,53.2154,352.5516,91.9946,84.0102,-0.019863,-0.00893063,0.0,0 STARLINK-5412,1 54806U 22175BA  23050.58334491 -.00893063  00000-0 -19863-1 0  9996,2 54806  53.2154 352.5516 0001347  91.9946  84.0102 15.45546412  9747,6807.91,93.171,430.692,428.858,0.0
54806.0,STARLINK-5412,PAYLOAD,2023-02-20 06:00:00,15.44243331,0.0001335,53.2151,349.3912,90.5015,195.363,-0.020409,-0.00878655,0.0,0 STARLINK-5412,1 54806U 22175BA  23051.25001157 -.00878655  00000-0 -20409-1 0  9999,2 54806  53.2151 349.3912 0001335  90.5015 195.3630 15.44243331  9854,6811.739,93.25,434.514,432.695,0.0
54806.0,STARLINK-5412,PAYLOAD,2023-02-20 14:00:01,15.43590226,0.0001216,53.2149,347.8106,98.8627,240.7673,-0.021102,-0.00887702,0.0,0 STARLINK-5412,1 54806U 22175BA  23051.58334491 -.00887702  00000-0 -21102-1 0  9999,2 54806  53.2149 347.8106 0001216  98.8627 240.7673 15.43590226  1308,6813.661,93.289,436.354,434.697,0.0
54806.0,STARLINK-5412,PAYLOAD,2023-02-20 22:00:01,15.42982731,0.0001219,53.2149,346.2336,90.957,301.6967,-0.023278,-0.00953304,0.0,0 STARLINK-5412,1 54806U 22175BA  23051.91668981 -.00953304  00000-0 -23278-1 0  9998,2 54806  53.2149 346.2336 0001219  90.9570 301.6967 15.42982731  9956,6815.449,93.326,438.145,436.483,0.0
54806.0,STARLINK-5412,PAYLOAD,2023-02-21 14:00:01,15.41634085,0.0001303,53.2148,343.0833,86.0142,50.2,-0.022345,-0.00880488,0.0,0 STARLINK-5412,1 54806U 22175BA  23052.58334491 -.00880488  00000-0 -22345-1 0  9994,2 54806  53.2148 343.0833 0001303  86.0142  50.2000 15.41634085 10050,6819.423,93.407,442.177,440.4,0.0
54806.0,STARLINK-5412,PAYLOAD,2023-02-22 00:00:00,15.40842349,0.0001335,53.2149,341.1188,89.7199,199.6518,-0.024101,-0.00921268,0.0,0 STARLINK-5412,1 54806U 22175BA  23053.00001157 -.00921268  00000-0 -24101-1 0  9996,2 54806  53.2149 341.1188 0001335  89.7199 199.6518 15.40842349  1303,6821.759,93.455,444.535,442.713,0.0
54806.0,STARLINK-5412,PAYLOAD,2023-02-22 06:00:00,15.40337291,0.0001423,53.2149,339.9415,83.2504,153.434,-0.023259,-0.0087788,0.0,0 STARLINK-5412,1 54806U 22175BA  23053.25001157 -.00877880  00000-0 -23259-1 0  9996,2 54806  53.2149 339.9415 0001423  83.2504 153.4340 15.40337291 10168,6823.25,93.486,446.086,444.144,0.0
54806.0,STARLINK-5412,PAYLOAD,2023-02-22 14:00:01,15.39681456,0.0001286,53.2152,338.3701,93.9886,191.768,-0.023841,-0.00880244,0.0,0 STARLINK-5412,1 54806U 22175BA  23053.58334491 -.00880244  00000-0 -23841-1 0  9997,2 54806  53.2152 338.3701 0001286  93.9886 191.7680 15.39681456  1302,6825.188,93.526,447.93,446.175,0.0
54806.0,STARLINK-5412,PAYLOAD,2023-02-22 22:00:00,15.39068509,0.0001267,53.2152,336.8027,92.1844,241.8415,-0.026261,-0.00944331,0.0,0 STARLINK-5412,1 54806U 22175BA  23053.91667824 -.00944331  00000-0 -26261-1 0  9990,2 54806  53.2152 336.8027 0001267  92.1844 241.8415 15.39068509 10266,6827.0,93.563,449.73,448.0,0.0
54806.0,STARLINK-5412,PAYLOAD,2023-02-23 14:00:01,15.37726742,0.0001264,53.2153,333.6707,86.2286,342.0303,-0.025324,-0.00877019,0.0,0 STARLINK-5412,1 54806U 22175BA  23054.58334491 -.00877019  00000-0 -25324-1 0  9992,2 54806  53.2153 333.6707 0001264  86.2286 342.0303 15.37726742 10367,6830.97,93.645,453.699,451.972,0.0
54806.0,STARLINK-5412,PAYLOAD,2023-02-23 22:00:00,15.37112293,0.0001396,53.2153,332.108,83.6534,30.5293,-0.027899,-0.00941217,0.0,0 STARLINK-5412,1 54806U 22175BA  23054.91667824 -.00941217  00000-0 -27899-1 0  9999,2 54806  53.2153 332.1080 0001396  83.6534  30.5293 15.37112293  1309,6832.791,93.682,455.609,453.702,0.0
54806.0,STARLINK-5412,PAYLOAD,2023-02-24 06:00:00,15.36443271,0.0001468,53.215,330.5472,77.3616,81.9751,-0.02703,-0.00896181,0.0,0 STARLINK-5412,1 54806U 22175BA  23055.25001157 -.00896181  00000-0 -27030-1 0  9994,2 54806  53.2150 330.5472 0001468  77.3616  81.9751 15.36443271 10462,6834.774,93.723,457.642,455.636,0.0
54806.0,STARLINK-5412,PAYLOAD,2023-02-24 14:00:01,15.35773564,0.0001401,53.2149,328.985,88.4161,115.3038,-0.026915,-0.00875012,0.0,0 STARLINK-5412,1 54806U 22175BA  23055.58334491 -.00875012  00000-0 -26915-1 0  9991,2 54806  53.2149 328.9850 0001401  88.4161 115.3038 15.35773564  1309,6836.761,93.764,459.584,457.668,0.0
54806.0,STARLINK-5412,PAYLOAD,2023-02-24 22:00:00,15.35155091,0.0001429,53.2149,327.4273,87.9897,159.3088,-0.029473,-0.00933946,0.0,0 STARLINK-5412,1 54806U 22175BA  23055.91667824 -.00933946  00000-0 -29473-1 0  9990,2 54806  53.2149 327.4273 0001429  87.9897 159.3088 15.35155091 10573,6838.597,93.802,461.439,459.485,0.0
54806.0,STARLINK-5412,PAYLOAD,2023-02-25 14:00:01,15.33819487,0.0001254,53.2143,324.3132,91.934,240.2069,-0.028563,-0.00872376,0.0,0 STARLINK-5412,1 54806U 22175BA  23056.58334491 -.00872376  00000-0 -28563-1 0  9993,2 54806  53.2143 324.3132 0001254  91.9340 240.2069 15.33819487  1305,6842.566,93.883,465.289,463.573,0.0
54806.0,STARLINK-5412,PAYLOAD,2023-02-25 22:00:00,15.33206213,0.0001304,53.2142,322.7603,84.7774,288.5935,-0.031609,-0.00940521,0.0,0 STARLINK-5412,1 54806U 22175BA  23056.91667824 -.00940521  00000-0 -31609-1 0  9992,2 54806  53.2142 322.7603 0001304  84.7774 288.5935 15.33206213  1300,6844.391,93.921,467.148,465.363,0.0
54806.0,STARLINK-5412,PAYLOAD,2023-02-26 06:00:00,15.32547933,0.0001295,53.2136,321.2084,74.3157,339.514,-0.031361,-0.00916055,0.0,0 STARLINK-5412,1 54806U 22175BA  23057.25001157 -.00916055  00000-0 -31361-1 0  9991,2 54806  53.2136 321.2084 0001295  74.3157 339.5140 15.32547933 10771,6846.351,93.961,469.102,467.329,0.0
54806.0,STARLINK-5412,PAYLOAD,2023-02-26 14:00:01,15.31869642,0.0001278,53.2137,319.6555,87.6898,5.8301,-0.030541,-0.00876571,0.0,0 STARLINK-5412,1 54806U 22175BA  23057.58334491 -.00876571  00000-0 -30541-1 0  9994,2 54806  53.2137 319.6555 0001278  87.6898   5.8301 15.31869642  1300,6848.371,94.003,471.112,469.361,0.0
54806.0,STARLINK-5412,PAYLOAD,2023-02-27 00:00:00,15.31062919,0.0001627,53.2135,317.7205,88.1378,143.8749,-0.031995,-0.0089389,0.0,0 STARLINK-5412,1 54806U 22175BA  23058.00001157 -.00893890  00000-0 -31995-1 0  9999,2 54806  53.2135 317.7205 0001627  88.1378 143.8749 15.31062919  1307,6850.777,94.052,473.756,471.527,0.0
54806.0,STARLINK-5412,PAYLOAD,2023-02-27 06:00:00,15.30600796,0.000154,53.2131,316.5596,83.3696,87.1436,-0.033654,-0.00924006,0.0,0 STARLINK-5412,1 54806U 22175BA  23058.25001157 -.00924006  00000-0 -33654-1 0  9994,2 54806  53.2131 316.5596 0001540  83.3696  87.1436 15.30600796 10928,6852.156,94.081,475.076,472.965,0.0
54806.0,STARLINK-5412,PAYLOAD,2023-02-27 14:00:01,15.29921098,0.0001376,53.213,315.0114,97.0383,110.8196,-0.032696,-0.00882434,0.0,0 STARLINK-5412,1 54806U 22175BA  23058.58334491 -.00882434  00000-0 -32696-1 0  9993,2 54806  53.2130 315.0114 0001376  97.0383 110.8196 15.29921098  1307,6854.185,94.123,476.993,475.107,0.0
54806.0,STARLINK-5412,PAYLOAD,2023-02-27 22:00:01,15.29287179,0.0001388,53.2131,313.4678,93.7924,150.6745,-0.034952,-0.00933045,0.0,0 STARLINK-5412,1 54806U 22175BA  23058.91668981 -.00933045  00000-0 -34952-1 0  9996,2 54806  53.2131 313.4678 0001388  93.7924 150.6745 15.29287179  1309,6856.079,94.162,478.896,476.992,0.0
54806.0,STARLINK-5412,PAYLOAD,2023-02-28 14:00:01,15.27968279,0.0001199,53.2127,310.3812,104.8838,210.2723,-0.034713,-0.00881996,0.0,0 STARLINK-5412,1 54806U 22175BA  23059.58334491 -.00881996  00000-0 -34713-1 0  9998,2 54806  53.2127 310.3812 0001199 104.8838 210.2723 15.27968279 11134,6860.024,94.243,482.711,481.066,0.0
54806.0,STARLINK-5412,PAYLOAD,2023-02-28 22:00:00,15.27335792,0.0001231,53.2127,308.8422,95.7725,253.5817,-0.037159,-0.00934045,0.0,0 STARLINK-5412,1 54806U 22175BA  23059.91667824 -.00934045  00000-0 -37159-1 0  9995,2 54806  53.2127 308.8422 0001231  95.7725 253.5817 15.27335792  1303,6861.917,94.282,484.627,482.938,0.0
54806.0,STARLINK-5412,PAYLOAD,2023-03-01 06:00:00,15.26707636,0.0001171,53.2123,307.3035,88.0892,294.6746,-0.039132,-0.00962647,0.0,0 STARLINK-5412,1 54806U 22175BA  23060.25001157 -.00962647  00000-0 -39132-1 0  9997,2 54806  53.2123 307.3035 0001171  88.0892 294.6746 15.26707636 11235,6863.8,94.321,486.468,484.861,0.0
